OBJECT_NAME,OBJECT_ID,EPOCH,MEAN_MOTION,ECCENTRICITY,INCLINATION,RA_OF_ASC_NODE,ARG_OF_PERICENTER,MEAN_ANOMALY,EPHEMERIS_TYPE,CLASSIFICATION_TYPE,NORAD_CAT_ID,ELEMENT_SET_NO,REV_AT_EPOCH,BSTAR,MEAN_MOTION_DOT,MEAN_MOTION_DDOT
SL-16 R/B,1996-051B,2026-07-11T04:20:19.238208,14.12454913,.0017473,70.7649,273.8722,303.3134,56.6312,0,U,24298,999,53908,.99279E-4,.134E-5,0
ORBVIEW 2 (SEASTAR),1997-037A,2026-07-09T17:48:13.832064,14.35565113,.00032268,98.8708,358.3882,71.7834,288.3701,0,U,24883,999,52598,.67593343E-4,.148E-5,0
SL-16 R/B,1998-043G,2026-07-10T07:20:39.141312,14.26072264,.00102996,98.8377,145.6657,25.0584,335.1093,0,U,25400,999,45646,.2344845E-4,.11E-6,0
SL-16 R/B,1998-045B,2026-07-10T06:17:22.504992,14.16207072,.00084303,71.0120,283.8029,213.5475,146.5115,0,U,25407,999,44445,-.92461759E-4,-.231E-5,0
ISS (ZARYA),1998-067A,2026-07-11T04:27:35.337024,15.48977198,.0006688,51.6302,181.3206,281.9973,78.0266,0,U,25544,999,57547,.10636E-3,.541E-4,0
CZ-4B R/B,1999-025C,2026-07-11T01:03:21.523104,14.18287220,.0036872,98.6473,233.2807,351.8111,20.0744,0,U,25732,999,40565,.20175E-4,-.1E-7,0
OKEAN-O,1999-039A,2026-07-10T14:20:14.694720,14.80494216,.000099,97.9304,250.1251,78.8596,281.2727,0,U,25860,999,45257,.46591E-4,.305E-5,0
SL-16 R/B,1999-039B,2026-07-11T03:18:11.375424,14.81868244,.001402,97.9825,250.9309,212.1406,147.8953,0,U,25861,999,45514,.37311E-4,.241E-5,0
DELTA 2 R/B,1999-041E,2026-07-10T19:35:36.087360,14.12072183,.0501284,51.7614,169.3935,351.8278,7.4707,0,U,25876,999,38042,.23287E-3,.121E-4,0
HELIOS 1B,1999-064A,2026-07-11T04:25:47.617824,14.88069160,.000213,98.1591,98.0170,59.3122,300.8304,0,U,25977,999,70362,.88373E-4,.754E-5,0
TERRA,1999-068A,2026-07-11T04:29:17.563776,14.61121721,.0003247,97.9443,240.7802,130.6045,266.1172,0,U,25994,999,41311,.48846E-4,.196E-5,0
SL-16 R/B,2000-006B,2026-07-11T00:22:39.092736,14.15839169,.0017018,71.0002,198.5212,345.8082,14.2560,0,U,26070,999,36601,-.10057E-3,-.246E-5,0
TITAN 4B R/B,2000-047B,2026-07-11T04:00:31.601088,15.10321424,.0045932,67.9872,53.0688,262.7273,96.8654,0,U,26474,999,41155,.94998E-4,.1457E-4,0
ENVISAT,2002-009A,2026-07-10T08:23:40.076160,14.39070079,.00013529,98.3846,142.1531,84.3059,63.5741,0,U,27386,999,27681,.2340758E-4,.29E-6,0
IDEFIX & ARIANE 42P R/B,2002-021B,2026-07-10T06:31:47.755200,14.31092447,.00115861,98.5942,128.5054,180.8092,179.3074,0,U,27422,999,26155,.56475991E-4,.105E-5,0
AQUA,2002-022A,2026-07-11T05:02:02.056128,14.62193614,.0000822,98.4292,161.9750,106.4128,310.5864,0,U,27424,999,28678,.95483E-4,.431E-5,0
CZ-4B R/B,2002-024C,2026-07-11T03:21:04.737024,14.14567794,.0050693,98.8688,244.8027,33.4155,345.5308,0,U,27432,999,24669,.21309E-4,-.3E-7,0
MIDORI II (ADEOS-II),2002-056A,2026-07-10T07:24:13.681152,14.29361606,.00016802,98.7892,150.7665,46.7248,313.4074,0,U,27597,999,22781,.71278219E-4,.136E-5,0
H-2A R/B,2002-056E,2026-07-10T15:44:00.000384,14.33832351,.0070627,98.3326,147.4762,154.3341,200.0518,0,U,27601,999,23172,.58694E-4,.127E-5,0
CZ-4B R/B,2003-049C,2026-07-09T23:48:28.246176,14.55113935,.00473367,98.6906,190.7473,217.3645,142.4256,0,U,28059,999,20438,.48379427E-4,.16E-5,0
CZ-2C R/B,2004-012C,2026-07-11T04:53:22.676352,15.84356462,.0011208,97.7065,270.7549,203.1443,156.9322,0,U,28222,999,22369,.4257E-3,.97493E-3,0
SL-16 R/B,2004-021B,2026-07-10T08:30:56.236320,14.14615417,.00064353,71.0024,335.0662,229.1860,130.8705,0,U,28353,999,14018,.11210395E-3,.168E-5,0
CZ-4B R/B,2004-035C,2026-07-11T02:56:33.465120,15.30955869,.0028994,97.3364,224.9297,247.9190,111.8972,0,U,28415,999,19878,.14767E-3,.4393E-4,0
CZ-2C R/B,2004-046B,2026-07-11T04:07:01.843104,14.27032308,.0139913,98.1923,99.4509,149.2302,211.7177,0,U,28480,999,12611,.31987E-4,.46E-6,0
ARIANE 5 R/B,2004-049H,2026-07-10T23:24:37.216800,14.85475885,.0082827,98.2738,5.1503,312.1460,47.2736,0,U,28499,999,16409,.37197E-4,.274E-5,0
CZ-2D R/B,2005-024B,2026-07-11T01:01:52.868928,15.72363493,.0001724,97.3480,212.7080,205.7161,154.4017,0,U,28738,999,15908,.3316E-3,.43939E-3,0
ALOS (DAICHI),2006-002A,2026-07-09T19:46:44.296320,14.70095524,.00007798,98.1335,146.3228,84.1885,275.9410,0,U,28931,999,9142,.11791798E-3,.659E-5,0
H-2A R/B,2006-002B,2026-07-10T12:25:37.335936,15.18397978,.0050522,98.2582,349.4657,181.8998,178.2050,0,U,28932,999,11306,.28784E-3,.6037E-4,0
RESURS-DK 1,2006-021A,2026-07-11T05:28:52.781088,15.13310988,.0006874,69.9327,277.3163,275.5943,84.4439,0,U,29228,999,10621,.63072E-4,.1017E-4,0
CZ-4B R/B,2006-046C,2026-07-10T23:39:00.479808,15.17960336,.0032169,97.5442,236.5191,196.8314,163.1855,0,U,29507,999,7874,.12443E-3,.2489E-4,0
